CCSDS_OMM_VERS = 2.0
CREATION_DATE  = 
ORIGINATOR     = 

OBJECT_NAME    = ALOS (DAICHI)
OBJECT_ID      = 2006-002A
CENTER_NAME    = EARTH
REF_FRAME      = TEME
TIME_SYSTEM    = UTC
MEAN_ELEMENT_THEORY = SGP/SGP4

EPOCH          = 2026-02-06T11:00:35.339040
MEAN_MOTION    = 14.69705146
ECCENTRICITY   = .000203
INCLINATION    = 98.1170
RA_OF_ASC_NODE = 353.5845
ARG_OF_PERICENTER = 68.7242
MEAN_ANOMALY   = 291.4180

EPHEMERIS_TYPE = 0
CLASSIFICATION_TYPE = U
NORAD_CAT_ID   = 28931
ELEMENT_SET_NO = 999
REV_AT_EPOCH   = 6889
BSTAR          = .37706E-3
MEAN_MOTION_DOT = .2197E-4
MEAN_MOTION_DDOT = 0

CCSDS_OMM_VERS = 2.0
CREATION_DATE  = 
ORIGINATOR     = 

OBJECT_NAME    = H-2A R/B
OBJECT_ID      = 2006-002B
CENTER_NAME    = EARTH
REF_FRAME      = TEME
TIME_SYSTEM    = UTC
MEAN_ELEMENT_THEORY = SGP/SGP4

EPOCH          = 2026-02-06T09:22:51.451392
MEAN_MOTION    = 15.15794470
ECCENTRICITY   = .0052984
INCLINATION    = 98.2364
RA_OF_ASC_NODE = 181.7523
ARG_OF_PERICENTER = 349.0297
MEAN_ANOMALY   = 10.9774

EPHEMERIS_TYPE = 0
CLASSIFICATION_TYPE = U
NORAD_CAT_ID   = 28932
ELEMENT_SET_NO = 999
REV_AT_EPOCH   = 8969
BSTAR          = .54854E-3
MEAN_MOTION_DOT = .1078E-3
MEAN_MOTION_DDOT = 0

CCSDS_OMM_VERS = 2.0
CREATION_DATE  = 
ORIGINATOR     = 

OBJECT_NAME    = RESURS-DK 1
OBJECT_ID      = 2006-021A
CENTER_NAME    = EARTH
REF_FRAME      = TEME
TIME_SYSTEM    = UTC
MEAN_ELEMENT_THEORY = SGP/SGP4

EPOCH          = 2026-02-06T04:34:33.062880
MEAN_MOTION    = 15.12557267
ECCENTRICITY   = .0004824
INCLINATION    = 69.9351
RA_OF_ASC_NODE = 318.4910
ARG_OF_PERICENTER = 207.4370
MEAN_ANOMALY   = 152.6542

EPHEMERIS_TYPE = 0
CLASSIFICATION_TYPE = U
NORAD_CAT_ID   = 29228
ELEMENT_SET_NO = 999
REV_AT_EPOCH   = 8276
BSTAR          = .25788E-3
MEAN_MOTION_DOT = .4403E-4
MEAN_MOTION_DDOT = 0

CCSDS_OMM_VERS = 2.0
CREATION_DATE  = 
ORIGINATOR     = 

OBJECT_NAME    = CZ-4B R/B
OBJECT_ID      = 2006-046C
CENTER_NAME    = EARTH
REF_FRAME      = TEME
TIME_SYSTEM    = UTC
MEAN_ELEMENT_THEORY = SGP/SGP4

EPOCH          = 2026-02-06T11:16:41.980512
MEAN_MOTION    = 15.16564952
ECCENTRICITY   = .0033934
INCLINATION    = 97.5651
RA_OF_ASC_NODE = 82.4599
ARG_OF_PERICENTER = 18.4527
MEAN_ANOMALY   = 341.7928

EPHEMERIS_TYPE = 0
CLASSIFICATION_TYPE = U
NORAD_CAT_ID   = 29507
ELEMENT_SET_NO = 999
REV_AT_EPOCH   = 5531
BSTAR          = .37211E-3
MEAN_MOTION_DOT = .7301E-4
MEAN_MOTION_DDOT = 0

CCSDS_OMM_VERS = 2.0
CREATION_DATE  = 
ORIGINATOR     = 

OBJECT_NAME    = CZ-2C R/B
OBJECT_ID      = 2007-010B
CENTER_NAME    = EARTH
REF_FRAME      = TEME
TIME_SYSTEM    = UTC
MEAN_ELEMENT_THEORY = SGP/SGP4

EPOCH          = 2026-02-06T07:19:17.673888
MEAN_MOTION    = 14.20235147
ECCENTRICITY   = .005942
INCLINATION    = 98.3970
RA_OF_ASC_NODE = 152.1603
ARG_OF_PERICENTER = 26.5247
MEAN_ANOMALY   = 333.8951

EPHEMERIS_TYPE = 0
CLASSIFICATION_TYPE = U
NORAD_CAT_ID   = 31114
ELEMENT_SET_NO = 999
REV_AT_EPOCH   = 97526
BSTAR          = .88239E-4
MEAN_MOTION_DOT = .151E-5
MEAN_MOTION_DDOT = 0

CCSDS_OMM_VERS = 2.0
CREATION_DATE  = 
ORIGINATOR     = 

OBJECT_NAME    = COSMO-SKYMED 1
OBJECT_ID      = 2007-023A
CENTER_NAME    = EARTH
REF_FRAME      = TEME
TIME_SYSTEM    = UTC
MEAN_ELEMENT_THEORY = SGP/SGP4

EPOCH          = 2026-02-06T12:05:39.456960
MEAN_MOTION    = 14.96290766
ECCENTRICITY   = .000101
INCLINATION    = 97.8856
RA_OF_ASC_NODE = 228.2931
ARG_OF_PERICENTER = 74.2670
MEAN_ANOMALY   = 285.8662

EPHEMERIS_TYPE = 0
CLASSIFICATION_TYPE = U
NORAD_CAT_ID   = 31598
ELEMENT_SET_NO = 999
REV_AT_EPOCH   = 1024
BSTAR          = .55904E-3
MEAN_MOTION_DOT = .626E-4
MEAN_MOTION_DDOT = 0

CCSDS_OMM_VERS = 2.0
CREATION_DATE  = 
ORIGINATOR     = 

OBJECT_NAME    = COSMOS 2428
OBJECT_ID      = 2007-029A
CENTER_NAME    = EARTH
REF_FRAME      = TEME
TIME_SYSTEM    = UTC
MEAN_ELEMENT_THEORY = SGP/SGP4

EPOCH          = 2026-02-06T00:44:21.060384
MEAN_MOTION    = 14.12930847
ECCENTRICITY   = .00071323
INCLINATION    = 70.9397
RA_OF_ASC_NODE = 269.8007
ARG_OF_PERICENTER = 312.1063
MEAN_ANOMALY   = 47.9451

EPHEMERIS_TYPE = 0
CLASSIFICATION_TYPE = U
NORAD_CAT_ID   = 31792
ELEMENT_SET_NO = 999
REV_AT_EPOCH   = 95962
BSTAR          = .2198647E-3
MEAN_MOTION_DOT = .362E-5
MEAN_MOTION_DDOT = 0

CCSDS_OMM_VERS = 2.0
CREATION_DATE  = 
ORIGINATOR     = 

OBJECT_NAME    = SL-16 R/B
OBJECT_ID      = 2007-029B
CENTER_NAME    = EARTH
REF_FRAME      = TEME
TIME_SYSTEM    = UTC
MEAN_ELEMENT_THEORY = SGP/SGP4

EPOCH          = 2026-02-06T01:02:02.302080
MEAN_MOTION    = 14.14829359
ECCENTRICITY   = .00018698
INCLINATION    = 70.9731
RA_OF_ASC_NODE = 238.9068
ARG_OF_PERICENTER = 275.8819
MEAN_ANOMALY   = 205.8255

EPHEMERIS_TYPE = 0
CLASSIFICATION_TYPE = U
NORAD_CAT_ID   = 31793
ELEMENT_SET_NO = 999
REV_AT_EPOCH   = 96089
BSTAR          = .25854455E-3
MEAN_MOTION_DOT = .451E-5
MEAN_MOTION_DDOT = 0

CCSDS_OMM_VERS = 2.0
CREATION_DATE  = 
ORIGINATOR     = 

OBJECT_NAME    = KORONAS-FOTON
OBJECT_ID      = 2009-003A
CENTER_NAME    = EARTH
REF_FRAME      = TEME
TIME_SYSTEM    = UTC
MEAN_ELEMENT_THEORY = SGP/SGP4

EPOCH          = 2026-02-06T04:18:56.720160
MEAN_MOTION    = 15.42498455
ECCENTRICITY   = .00088941
INCLINATION    = 82.4329
RA_OF_ASC_NODE = 308.6126
ARG_OF_PERICENTER = 273.1505
MEAN_ANOMALY   = 86.8724

EPHEMERIS_TYPE = 0
CLASSIFICATION_TYPE = U
NORAD_CAT_ID   = 33504
ELEMENT_SET_NO = 999
REV_AT_EPOCH   = 94088
BSTAR          = .31635963E-3
MEAN_MOTION_DOT = .13767E-3
MEAN_MOTION_DDOT = 0

CCSDS_OMM_VERS = 2.0
CREATION_DATE  = 
ORIGINATOR     = 

OBJECT_NAME    = CZ-2C R/B
OBJECT_ID      = 2011-030B
CENTER_NAME    = EARTH
REF_FRAME      = TEME
TIME_SYSTEM    = UTC
MEAN_ELEMENT_THEORY = SGP/SGP4

EPOCH          = 2026-02-06T08:24:41.688000
MEAN_MOTION    = 14.81101092
ECCENTRICITY   = .0054215
INCLINATION    = 97.8493
RA_OF_ASC_NODE = 355.2567
ARG_OF_PERICENTER = 92.2032
MEAN_ANOMALY   = 59.5348

EPHEMERIS_TYPE = 0
CLASSIFICATION_TYPE = U
NORAD_CAT_ID   = 37731
ELEMENT_SET_NO = 999
REV_AT_EPOCH   = 78545
BSTAR          = .26066E-3
MEAN_MOTION_DOT = .2022E-4
MEAN_MOTION_DDOT = 0

CCSDS_OMM_VERS = 2.0
CREATION_DATE  = 
ORIGINATOR     = 

OBJECT_NAME    = H-2A R/B
OBJECT_ID      = 2012-025E
CENTER_NAME    = EARTH
REF_FRAME      = TEME
TIME_SYSTEM    = UTC
MEAN_ELEMENT_THEORY = SGP/SGP4

EPOCH          = 2026-02-06T08:07:59.766816
MEAN_MOTION    = 14.94891789
ECCENTRICITY   = .0046073
INCLINATION    = 98.4682
RA_OF_ASC_NODE = 1.8972
ARG_OF_PERICENTER = 56.1438
MEAN_ANOMALY   = 304.4151

EPHEMERIS_TYPE = 0
CLASSIFICATION_TYPE = U
NORAD_CAT_ID   = 38341
ELEMENT_SET_NO = 999
REV_AT_EPOCH   = 74353
BSTAR          = .42585E-3
MEAN_MOTION_DOT = .4674E-4
MEAN_MOTION_DDOT = 0

CCSDS_OMM_VERS = 2.0
CREATION_DATE  = 
ORIGINATOR     = 

OBJECT_NAME    = SHIJIAN-16 (SJ-16)
OBJECT_ID      = 2013-057A
CENTER_NAME    = EARTH
REF_FRAME      = TEME
TIME_SYSTEM    = UTC
MEAN_ELEMENT_THEORY = SGP/SGP4

EPOCH          = 2026-02-06T12:31:01.973568
MEAN_MOTION    = 14.92234271
ECCENTRICITY   = .0016909
INCLINATION    = 74.9699
RA_OF_ASC_NODE = 244.0889
ARG_OF_PERICENTER = 190.0830
MEAN_ANOMALY   = 170.0022

EPHEMERIS_TYPE = 0
CLASSIFICATION_TYPE = U
NORAD_CAT_ID   = 39358
ELEMENT_SET_NO = 999
REV_AT_EPOCH   = 66685
BSTAR          = .17156E-3
MEAN_MOTION_DOT = .1725E-4
MEAN_MOTION_DDOT = 0

