ALOS (DAICHI)           
1 28931U 06002A   26037.45874235  .00002197  00000+0  37706-3 0  9991
2 28931  98.1170 353.5845 0002030  68.7242 291.4180 14.69705146 68897
H-2A R/B                
1 28932U 06002B   26037.39087328  .00010780  00000+0  54854-3 0  9994
2 28932  98.2364 181.7523 0052984 349.0297  10.9774 15.15794470 89690
RESURS-DK 1             
1 29228U 06021A   26037.19066045  .00004403  00000+0  25788-3 0  9994
2 29228  69.9351 318.4910 0004824 207.4370 152.6542 15.12557267 82764
CZ-4B R/B               
1 29507U 06046C   26037.46993033  .00007301  00000+0  37211-3 0  9991
2 29507  97.5651  82.4599 0033934  18.4527 341.7928 15.16564952 55316
CZ-2C R/B               
1 31114U 07010B   26037.30506567  .00000151  00000+0  88239-4 0  9998
2 31114  98.3970 152.1603 0059420  26.5247 333.8951 14.20235147975262
COSMO-SKYMED 1          
1 31598U 07023A   26037.50392890  .00006260  00000+0  55904-3 0  9991
2 31598  97.8856 228.2931 0001010  74.2670 285.8662 14.96290766 10240
COSMOS 2428             
1 31792U 07029A   26037.03079931  .00000362  00000+0  21986-3 0  9999
2 31792  70.9397 269.8007 0007132 312.1063  47.9451 14.12930847959620
SL-16 R/B               
1 31793U 07029B   26037.04308220  .00000451  00000+0  25854-3 0  9994
2 31793  70.9731 238.9068 0001869 275.8819 205.8255 14.14829359960897
KORONAS-FOTON           
1 33504U 09003A   26037.17982315  .00013767  00000+0  31636-3 0  9996
2 33504  82.4329 308.6126 0008894 273.1505  86.8724 15.42498455940884
CZ-2C R/B               
1 37731U 11030B   26037.35048250  .00002022  00000+0  26066-3 0  9999
2 37731  97.8493 355.2567 0054215  92.2032  59.5348 14.81101092785451
H-2A R/B                
1 38341U 12025E   26037.33888619  .00004674  00000+0  42585-3 0  9990
2 38341  98.4682   1.8972 0046073  56.1438 304.4151 14.94891789743532
SHIJIAN-16 (SJ-16)      
1 39358U 13057A   26037.52155062  .00001725  00000+0  17156-3 0  9995
2 39358  74.9699 244.0889 0016909 190.0830 170.0022 14.92234271666853
